#aV2007  4  1  0  0   .00000000      96 DD+AD WGS84 FIT  NGA
## 1421       .00000000   900.00000000 54191  .0000000000000
+   30     1  2  3  4  5  6  7  8  9 10 11 12 13 14 16 17 18
+         19 20 21 22 23 24 25 26 27 28 29 30 31  0  0  0  0
+          0  0  0  0  0  0  0  0  0  0  0  0  0  0  0  0  0
+          0  0  0  0  0  0  0  0  0  0  0  0  0  0  0  0  0
+          0  0  0  0  0  0  0  0  0  0  0  0  0  0  0  0  0
++         0  0  0  0  0  0  0  0  0  0  0  0  0  0  0  0  0
++         0  0  0  0  0  0  0  0  0  0  0  0  0  0  0  0  0
++         0  0  0  0  0  0  0  0  0  0  0  0  0  0  0  0  0
++         0  0  0  0  0  0  0  0  0  0  0  0  0  0  0  0  0
++         0  0  0  0  0  0  0  0  0  0  0  0  0  0  0  0  0
%c cc cc ccc ccc cccc cccc cccc cccc ccccc ccccc ccccc ccccc
%c cc cc ccc ccc cccc cccc cccc cccc ccccc ccccc ccccc ccccc
%f  0.0000000  0.000000000  0.00000000000  0.000000000000000
%f  0.0000000  0.000000000  0.00000000000  0.000000000000000
%i    0    0    0    0      0      0      0      0         0
%i    0    0    0    0      0      0      0      0         0
/*      NGA, ST. LOUIS,MO.                                  
/*   EPHEMERIS COMPUTED FROM  3 DAYS OF DATA                
/* CCCCCCCCCCCCCCCCCCCCCCCCCCCCCCCCCCCCCCCCCCCCCCCCCCCCCCCCC
/* CCCCCCCCCCCCCCCCCCCCCCCCCCCCCCCCCCCCCCCCCCCCCCCCCCCCCCCCC
*  2007  4  1 17 45   .00000000                                                 
P  1 -13393.739400  14683.224439 -17385.087889    117.513370                    
V  1   1633.731989 -22413.378968 -20012.023334       .025473                    
P  2  22130.222995 -13795.116273   3975.120596     95.306229                    
V  2   6345.094844    799.608523 -31071.152864       .032122                    
P  3 -11316.126515  18054.914094  15445.604869     36.330096                    
V  3  -3251.445544 -20166.349379  21245.375159       .054773                    
P  4  24974.246084  -4766.214517  -8367.877185      9.488328                    
V  4  -8378.905669   6814.804975 -28764.174401       .008554                    
P  5  -8128.755747 -18983.862127 -17019.735894     39.401025                    
V  5  19372.309279   8778.769726 -19155.394585      -.042395                    
P  6  -7124.573944 -23151.106639  11030.508314    119.644769                    
V  6   3745.344528 -13646.479119 -26722.825538       .198878                    
P  7 -10474.800233 -19681.898321  14721.705309    362.146200                    
V  7   2938.411317 -18151.105140 -22782.827367      -.147022                    
P  8  20845.466745   3185.676131  16296.159477   -102.121190                    
V  8 -18580.169948   9217.822336  21386.559966      -.013612                    
P  9   7386.369981 -18199.809798 -18357.815251     64.158836                    
V  9  20372.685598  -8965.473365  17881.181501       .016639                    
P 10  13652.779146  -8078.667598  21238.907343     99.663311                    
V 10  21675.381846  16357.054700  -7353.999509       .005992                    
P 11  -3806.190996  19674.743069 -17407.765490     12.016569                    
V 11 -19873.602341  10426.486273  16520.803547       .011491                    
P 12  -4752.996497 -18683.739415 -18181.250311    -44.028260                    
V 12  20058.848607  11938.480370 -17355.757351       .001759                    
P 13   7002.868099  21119.507720  14442.708976    158.902233                    
V 13  -3432.577330  18155.899065 -24671.766382       .037160                    
P 14 -14349.326014  -2752.039696 -22101.932294     14.032912                    
V 14   2892.123834 -28029.410219   1541.048625       .015923                    
P 16 -18316.089659   3263.640946  19094.691952    136.057757                    
V 16 -18843.959948 -14930.931124 -15454.789538       .033179                    
P 17  14723.074054   4860.977151 -21568.508887     73.203005                    
V 17  -2695.626046  27262.032097   4179.839544      -.013422                    
P 18 -20216.155855 -17361.148643   2362.350957   -252.324595                    
V 18   3895.859506   -490.724003  31196.496440       .005178                    
P 19  -8383.362695  24230.920486   6816.282308     20.537238                    
V 19  -1559.832868  -8873.978041  30163.092343       .037735                    
P 20   5949.010317  19093.217939 -17600.923391    -23.318589                    
V 20 -19342.068495 -10945.761944 -18475.746553      -.002973                    
P 21 -15137.121551  -9345.010241  19984.398793     74.607647                    
V 21  22593.002988 -10905.718527  11509.595146       .007114                    
P 22 -23036.828827 -10123.561392  -8386.903373    174.728182                    
V 22  -6863.298743  -8905.370199  29050.784464       .017858                    
P 23    941.742201  26043.256928   4473.650814    157.577424                    
V 23  -3091.927304   5574.728067 -31423.854896       .021490                    
P 24   -784.138249 -16020.678447  21418.342375     89.430216                    
V 24  24833.231489  -9770.027736  -6169.903294       .028376                    
P 25 -12663.861709  19046.356639  14066.512570    262.130672                    
V 25 -15726.247543   7054.915735 -24235.107193      -.251561                    
P 26   8375.168329 -23177.013507   8664.938677   -118.962458                    
V 26    842.359454  11921.662370  30185.911852      -.195991                    
P 27  13554.331170   9561.117501  21438.776565    102.585949                    
V 27 -22240.247700  12859.171378   8343.797863       .021193                    
P 28  22954.567025  12915.093159  -4332.032583      4.139370                    
V 28   3275.551225   5462.184396  30909.283025      -.008358                    
P 29  10466.503209 -20329.687415  13403.244205      1.142253                    
V 29    381.840553  16844.620987  26013.328112       .005244                    
P 30 -15157.578088 -19084.806214 -10997.457428     29.808378                    
V 30  12823.971039   5006.755675 -27003.099862       .011144                    
P 31 -24796.989913   6727.736077  -6665.233025     18.212406                    
V 31   6710.444906  -6156.027399 -30198.053347       .014141                    
EOF
